FENGYUN 1C DEB          
1 29748U 99025AN  17345.76790436  .00012849  00000-0  10792+0 0  9999
2 29748 100.1546 279.2683 0915661 121.4008 247.9857 11.48895150446817
